[{"OBJECT_NAME":"STARLINK-32868","OBJECT_ID":"2025-022A","EPOCH":"2026-03-09T13:12:21.377952","MEAN_MOTION":15.3018982,"ECCENTRICITY":0.0001326,"INCLINATION":53.1602,"RA_OF_ASC_NODE":129.9158,"ARG_OF_PERICENTER":85.7271,"MEAN_ANOMALY":274.3882,"EPHEMERIS_TYPE":0,"CLASSIFICATION_TYPE":"U","NORAD_CAT_ID":62854,"ELEMENT_SET_NO":999,"REV_AT_EPOCH":6269,"BSTAR":0.000743,"MEAN_MOTION_DOT":0.00021704,"MEAN_MOTION_DDOT":0},{"OBJECT_NAME":"CZ-4B DEB","OBJECT_ID":"2006-015E","EPOCH":"2026-03-09T20:34:53.082912","MEAN_MOTION":15.19885806,"ECCENTRICITY":0.00461993,"INCLINATION":98.0565,"RA_OF_ASC_NODE":201.7753,"ARG_OF_PERICENTER":62.4887,"MEAN_ANOMALY":298.1031,"EPHEMERIS_TYPE":0,"CLASSIFICATION_TYPE":"U","NORAD_CAT_ID":29538,"ELEMENT_SET_NO":999,"REV_AT_EPOCH":5389,"BSTAR":0.0022587151,"MEAN_MOTION_DOT":0.00050103,"MEAN_MOTION_DDOT":0}]
